{"type":"FeatureCollection","features":[{"type":"Feature","properties":{"amenity":"bicycle_parking","id":"node/1672192321"},"geometry":{"type":"Point","coordinates":[-75.587641,6.16999]}},{"type":"Feature","properties":{"amenity":"bicycle_parking","id":"node/1928274036"},"geometry":{"type":"Point","coordinates":[-75.544752,6.338404]}},{"type":"Feature","properties":{"amenity":"bicycle_parking","bicycle_parking":"stands","mapillary":"62YVarOpHm12Akrts6aYyw","survey:date":"2018-03-06","id":"node/1974530902"},"geometry":{"type":"Point","coordinates":[-75.583595,6.179513]}},{"type":"Feature","properties":{"amenity":"bicycle_parking","bicycle_parking":"bollard","mapillary":"5FhSTUuEsDncB-_0YU9c6w","survey:date":"2017-07-29","id":"node/2418127133"},"geometry":{"type":"Point","coordinates":[-75.582517,6.252986]}},{"type":"Feature","properties":{"access":"yes","amenity":"bicycle_parking","bicycle_parking":"rack","capacity":"10","covered":"no","fee":"no","operator":"Universidad de Antioquia","operator:type":"public","id":"node/3534140982"},"geometry":{"type":"Point","coordinates":[-75.587308,6.271008]}},{"type":"Feature","properties":{"amenity":"bicycle_parking","bicycle_parking":"wall_loops","id":"node/3710264176"},"geometry":{"type":"Point","coordinates":[-75.566673,6.265195]}},{"type":"Feature","properties":{"amenity":"bicycle_parking","bicycle_parking":"stands","id":"node/4477643075"},"geometry":{"type":"Point","coordinates":[-75.597108,6.244938]}},{"type":"Feature","properties":{"access":"yes","amenity":"bicycle_parking","bicycle_parking":"stands","capacity":"100","covered":"no","fee":"no","operator":"Universidad Nacional de Colombia","operator:type":"public","id":"node/5636405476"},"geometry":{"type":"Point","coordinates":[-75.577116,6.26085]}},{"type":"Feature","properties":{"access":"yes","amenity":"bicycle_parking","bicycle_parking":"stands","capacity":"30","covered":"no","fee":"no","operator":"Universidad Nacional de Colombia","operator:type":"public","id":"node/5636405488"},"geometry":{"type":"Point","coordinates":[-75.57762,6.262091]}},{"type":"Feature","properties":{"amenity":"bicycle_parking","operator":"ENCICLA Estación","id":"node/6174424290"},"geometry":{"type":"Point","coordinates":[-75.593081,6.215786]}},{"type":"Feature","properties":{"amenity":"bicycle_parking","id":"node/6751329285"},"geometry":{"type":"Point","coordinates":[-75.502463,6.280537]}},{"type":"Feature","properties":{"access":"yes","amenity":"bicycle_parking","bicycle_parking":"ground_slots","capacity":"6","covered":"yes","description":"Estación de Ecocarga en la Facultad de Minas de la Universidad Nacional de Colombia Sede Medellín","operator":"Universidad Nacional de Colombia","operator:type":"public","id":"node/7195501094"},"geometry":{"type":"Point","coordinates":[-75.592656,6.274044]}},{"type":"Feature","properties":{"access":"yes","amenity":"bicycle_parking","bicycle_parking":"building","covered":"no","operator":"EnCiclas","operator:type":"public","id":"node/7253680752"},"geometry":{"type":"Point","coordinates":[-75.574426,6.230294]}},{"type":"Feature","properties":{"access":"yes","amenity":"bicycle_parking","bicycle_parking":"rack","capacity":"18","covered":"no","supervised":"no","id":"node/7253708902"},"geometry":{"type":"Point","coordinates":[-75.565862,6.268115]}},{"type":"Feature","properties":{"access":"yes","amenity":"bicycle_parking","bicycle_parking":"rack","capacity":"15","covered":"no","supervised":"no","id":"node/7253708903"},"geometry":{"type":"Point","coordinates":[-75.566569,6.267762]}},{"type":"Feature","properties":{"access":"yes","amenity":"bicycle_parking","bicycle_parking":"wall_loops","covered":"no","supervised":"no","id":"node/7253708905"},"geometry":{"type":"Point","coordinates":[-75.566539,6.26955]}},{"type":"Feature","properties":{"access":"yes","amenity":"bicycle_parking","bicycle_parking":"rack","covered":"no","supervised":"no","id":"node/7253708907"},"geometry":{"type":"Point","coordinates":[-75.564997,6.266689]}},{"type":"Feature","properties":{"amenity":"bicycle_parking","covered":"yes","payment:cards":"yes","payment:cash":"yes","supervised":"yes","id":"node/7253708908"},"geometry":{"type":"Point","coordinates":[-75.565175,6.268639]}},{"type":"Feature","properties":{"amenity":"bicycle_parking","id":"node/7253778806"},"geometry":{"type":"Point","coordinates":[-75.564365,6.272108]}},{"type":"Feature","properties":{"amenity":"bicycle_parking","operator":"Terminal de Transportes del Sur","id":"node/7310652885"},"geometry":{"type":"Point","coordinates":[-75.586669,6.216944]}},{"type":"Feature","properties":{"amenity":"bicycle_parking","bicycle_parking":"building","id":"node/7333311998"},"geometry":{"type":"Point","coordinates":[-75.553678,6.288468]}},{"type":"Feature","properties":{"access":"yes","amenity":"bicycle_parking","bicycle_parking":"rack","covered":"no","fee":"no","id":"node/7363922726"},"geometry":{"type":"Point","coordinates":[-75.562058,6.249329]}},{"type":"Feature","properties":{"access":"yes","amenity":"bicycle_parking","bicycle_parking":"rack","fee":"no","id":"node/7363922727"},"geometry":{"type":"Point","coordinates":[-75.560357,6.250034]}},{"type":"Feature","properties":{"access":"yes","amenity":"bicycle_parking","bicycle_parking":"rack","covered":"no","fee":"no","id":"node/7364223388"},"geometry":{"type":"Point","coordinates":[-75.562859,6.245954]}},{"type":"Feature","properties":{"amenity":"bicycle_parking","bicycle_parking":"building","id":"node/7387450538"},"geometry":{"type":"Point","coordinates":[-75.560929,6.294641]}},{"type":"Feature","properties":{"amenity":"bicycle_parking","bicycle_parking":"building","id":"node/7387451457"},"geometry":{"type":"Point","coordinates":[-75.552038,6.298007]}},{"type":"Feature","properties":{"amenity":"bicycle_parking","bicycle_parking":"stands","capacity":"16","id":"node/7395393643"},"geometry":{"type":"Point","coordinates":[-75.580702,6.276801]}},{"type":"Feature","properties":{"access":"yes","amenity":"bicycle_parking","bicycle_parking":"stands","capacity":"12","fee":"no","id":"node/7395444147"},"geometry":{"type":"Point","coordinates":[-75.583682,6.285554]}},{"type":"Feature","properties":{"access":"yes","amenity":"bicycle_parking","bicycle_parking":"stands","capacity":"18","covered":"no","fee":"no","operator":"Colegio Mayor de Antioquia","operator:type":"public","id":"node/7395544529"},"geometry":{"type":"Point","coordinates":[-75.591806,6.273522]}},{"type":"Feature","properties":{"access":"yes","amenity":"bicycle_parking","bicycle_parking":"stands","capacity":"72","covered":"yes","fee":"no","operator":"ITM","operator:type":"public","id":"node/7395544530"},"geometry":{"type":"Point","coordinates":[-75.589025,6.27328]}},{"type":"Feature","properties":{"access":"yes","amenity":"bicycle_parking","bicycle_parking":"bollard","capacity":"20","covered":"no","fee":"no","operator":"Pascual Bravo","operator:type":"public","id":"node/7395544531"},"geometry":{"type":"Point","coordinates":[-75.585848,6.273095]}},{"type":"Feature","properties":{"access":"yes","amenity":"bicycle_parking","bicycle_parking":"stands","capacity":"24","covered":"no","fee":"no","operator":"Pascual Bravo","operator:type":"public","id":"node/7395544532"},"geometry":{"type":"Point","coordinates":[-75.585923,6.273257]}},{"type":"Feature","properties":{"access":"yes","amenity":"bicycle_parking","bicycle_parking":"staple","capacity":"6","covered":"no","fee":"no","id":"node/7395702401"},"geometry":{"type":"Point","coordinates":[-75.587455,6.262221]}},{"type":"Feature","properties":{"access":"yes","amenity":"bicycle_parking","bicycle_parking":"staple","capacity":"20","covered":"no","fee":"no","id":"node/7395702402"},"geometry":{"type":"Point","coordinates":[-75.589043,6.26216]}},{"type":"Feature","properties":{"access":"yes","amenity":"bicycle_parking","bicycle_parking":"stands","capacity":"4","covered":"no","fee":"no","operator":"Consumo","operator:type":"private","id":"node/7395702406"},"geometry":{"type":"Point","coordinates":[-75.588839,6.263029]}},{"type":"Feature","properties":{"access":"yes","amenity":"bicycle_parking","bicycle_parking":"rack","covered":"no","fee":"no","id":"node/7396233375"},"geometry":{"type":"Point","coordinates":[-75.556289,6.242589]}},{"type":"Feature","properties":{"amenity":"bicycle_parking","bicycle_parking":"building","id":"node/7400045938"},"geometry":{"type":"Point","coordinates":[-75.547421,6.29741]}},{"type":"Feature","properties":{"amenity":"bicycle_parking","bicycle_parking":"building","id":"node/7465156592"},"geometry":{"type":"Point","coordinates":[-75.539646,6.288758]}},{"type":"Feature","properties":{"amenity":"bicycle_parking","bicycle_parking":"building","id":"node/7499543906"},"geometry":{"type":"Point","coordinates":[-75.553041,6.288678]}},{"type":"Feature","properties":{"access":"yes","amenity":"bicycle_parking","bicycle_parking":"rack","capacity":"10","covered":"no","fee":"no","lit":"yes","id":"node/7523641747"},"geometry":{"type":"Point","coordinates":[-75.579025,6.256198]}},{"type":"Feature","properties":{"access":"yes","amenity":"bicycle_parking","bicycle_parking":"rack","covered":"no","fee":"no","lit":"yes","id":"node/7523641748"},"geometry":{"type":"Point","coordinates":[-75.577923,6.256986]}},{"type":"Feature","properties":{"access":"yes","amenity":"bicycle_parking","bicycle_parking":"rack","capacity":"10","covered":"no","fee":"no","lit":"yes","id":"node/7523641749"},"geometry":{"type":"Point","coordinates":[-75.577769,6.255433]}},{"type":"Feature","properties":{"amenity":"bicycle_parking","operator":"EnCicla","supervised":"yes","id":"node/7523691050"},"geometry":{"type":"Point","coordinates":[-75.588534,6.253445]}},{"type":"Feature","properties":{"amenity":"bicycle_parking","bicycle_parking":"rack","fee":"no","supervised":"no","id":"node/7523706667"},"geometry":{"type":"Point","coordinates":[-75.591291,6.25749]}},{"type":"Feature","properties":{"access":"yes","amenity":"bicycle_parking","bicycle_parking":"rack","capacity":"6","covered":"no","name":"Biciparquadero Jardin Botanico","supervised":"no","id":"node/7253708906"},"geometry":{"type":"Point","coordinates":[-75.56458,6.26967]}},{"type":"Feature","properties":{"access":"yes","amenity":"bicycle_parking","bicycle_parking":"rack","capacity":"15","covered":"yes","name":"Biciparqueadero Parque explora","supervised":"yes","id":"node/7253708904"},"geometry":{"type":"Point","coordinates":[-75.566068,6.269721]}},{"type":"Feature","properties":{"access":"customers","amenity":"bicycle_parking","bicycle_parking":"rack","name":"Estación EnCicla Pedro Nel Gómez.","operator":"Encicla","id":"node/4318405089"},"geometry":{"type":"Point","coordinates":[-75.596567,6.246984]}},{"type":"Feature","properties":{"amenity":"bicycle_parking","name":"Pies Descalzos I","opening_hours":"Mo-Fr 05:30-21:00; Sa 06:30-20:00","operator":"Encicla","website":"http://www.encicla.gov.co","id":"node/7092226385"},"geometry":{"type":"Point","coordinates":[-75.576842,6.245394]}},{"type":"Feature","properties":{"amenity":"bicycle_parking","name":"Pies Descalzos II","opening_hours":"Mo-Fr 05:30-21:00; Sa 06:30-20:00","operator":"Encicla","website":"http://www.encicla.gov.co","id":"node/7253816371"},"geometry":{"type":"Point","coordinates":[-75.576737,6.245289]}},{"type":"Feature","properties":{"amenity":"bicycle_parking","name":"Sol Rojo","id":"node/1672173292"},"geometry":{"type":"Point","coordinates":[-75.582675,6.178118]}},{"type":"Feature","properties":{"amenity":"bicycle_parking","bicycle_parking":"rack","fee":"no","supervised":"no","covered":"no","name":"Complejo Acuático"},"geometry":{"type":"Point","coordinates":[-75.590937,6.255536]}},{"type":"Feature","properties":{"amenity":"bicycle_parking","bicycle_parking":"rack","fee":"no","supervised":"no","covered":"no"},"geometry":{"type":"Point","coordinates":[-75.590465,6.259962]}},{"type":"Feature","properties":{"name":"Unicentro","amenity":"bicycle-parking","covered":"yes","supervised":"yes","bicycle_parking":"U invertidas","operator:type":"private","fee":"no","operator":"Unicentro"},"geometry":{"type":"Point","coordinates":[-75.586887,6.240162]}},{"type":"Feature","properties":{"name":"HomeCenter","amenity":"bicycle-parking","covered":"yes","supervised":"yes","operator":"HomeCenter","operator:type":"private","fee":"no"},"geometry":{"type":"Point","coordinates":[-75.583584,6.249245]}},{"type":"Feature","properties":{"name":"Casa de Cultura Los Alcázares","amenity":"bicycle-parking","covered":"no","supervised":"no","operator:type":"public","fee":"no"},"geometry":{"type":"Point","coordinates":[-75.606479,6.259621]}}],"_umap_options":{"displayOnLoad":true,"browsable":false,"name":"Cicloparqueadero","remoteData":{},"iconClass":"Default","opacity":"0.7","fillOpacity":"0.5","id":1284278,"popupContentTemplate":"# Parqueadero\nTipo: {bicycle_parking}\nCapacidad: {capacity}\nCubierto: {covered}\nCobro: {fee}","iconUrl":"https://www.siclas.org/wp-content/uploads/2020/05/Parking_32.png","popupTemplate":"Default","color":"LightSlateGrey"}}